CCSDS_OMM_VERS = 2.0
CREATION_DATE  = 
ORIGINATOR     = 

OBJECT_NAME    = STARLINK-36825
OBJECT_ID      = 2026-041B
CENTER_NAME    = EARTH
REF_FRAME      = TEME
TIME_SYSTEM    = UTC
MEAN_ELEMENT_THEORY = SGP/SGP4

EPOCH          = 2026-03-12T06:00:00.999648
MEAN_MOTION    = 15.83647852
ECCENTRICITY   = .00008619
INCLINATION    = 53.1589
RA_OF_ASC_NODE = 49.3029
ARG_OF_PERICENTER = 80.7006
MEAN_ANOMALY   = 265.4232

EPHEMERIS_TYPE = 0
CLASSIFICATION_TYPE = U
NORAD_CAT_ID   = 68041
ELEMENT_SET_NO = 999
REV_AT_EPOCH   = 278
BSTAR          = -.80089049E-2
MEAN_MOTION_DOT = -.1578946E-1
MEAN_MOTION_DDOT = 0

CCSDS_OMM_VERS = 2.0
CREATION_DATE  = 
ORIGINATOR     = 

OBJECT_NAME    = STARLINK-36925
OBJECT_ID      = 2026-041C
CENTER_NAME    = EARTH
REF_FRAME      = TEME
TIME_SYSTEM    = UTC
MEAN_ELEMENT_THEORY = SGP/SGP4

EPOCH          = 2026-03-12T06:00:00.999648
MEAN_MOTION    = 15.83475061
ECCENTRICITY   = .00006131
INCLINATION    = 53.1591
RA_OF_ASC_NODE = 49.3112
ARG_OF_PERICENTER = 83.2285
MEAN_ANOMALY   = 259.1001

EPHEMERIS_TYPE = 0
CLASSIFICATION_TYPE = U
NORAD_CAT_ID   = 68042
ELEMENT_SET_NO = 999
REV_AT_EPOCH   = 278
BSTAR          = -.80405365E-2
MEAN_MOTION_DOT = -.1572763E-1
MEAN_MOTION_DDOT = 0

CCSDS_OMM_VERS = 2.0
CREATION_DATE  = 
ORIGINATOR     = 

OBJECT_NAME    = STARLINK-36902
OBJECT_ID      = 2026-041D
CENTER_NAME    = EARTH
REF_FRAME      = TEME
TIME_SYSTEM    = UTC
MEAN_ELEMENT_THEORY = SGP/SGP4

EPOCH          = 2026-03-12T06:00:00.999648
MEAN_MOTION    = 15.83828684
ECCENTRICITY   = .00008062
INCLINATION    = 53.1592
RA_OF_ASC_NODE = 49.2958
ARG_OF_PERICENTER = 97.2255
MEAN_ANOMALY   = 252.6020

EPHEMERIS_TYPE = 0
CLASSIFICATION_TYPE = U
NORAD_CAT_ID   = 68043
ELEMENT_SET_NO = 999
REV_AT_EPOCH   = 278
BSTAR          = -.78875166E-2
MEAN_MOTION_DOT = -.1569843E-1
MEAN_MOTION_DDOT = 0

CCSDS_OMM_VERS = 2.0
CREATION_DATE  = 
ORIGINATOR     = 

OBJECT_NAME    = STARLINK-36966
OBJECT_ID      = 2026-041E
CENTER_NAME    = EARTH
REF_FRAME      = TEME
TIME_SYSTEM    = UTC
MEAN_ELEMENT_THEORY = SGP/SGP4

EPOCH          = 2026-03-12T06:00:00.999648
MEAN_MOTION    = 15.84113936
ECCENTRICITY   = .00008931
INCLINATION    = 53.1590
RA_OF_ASC_NODE = 49.2800
ARG_OF_PERICENTER = 86.3171
MEAN_ANOMALY   = 271.1106

EPHEMERIS_TYPE = 0
CLASSIFICATION_TYPE = U
NORAD_CAT_ID   = 68044
ELEMENT_SET_NO = 999
REV_AT_EPOCH   = 278
BSTAR          = -.77491223E-2
MEAN_MOTION_DOT = -.1564483E-1
MEAN_MOTION_DDOT = 0

CCSDS_OMM_VERS = 2.0
CREATION_DATE  = 
ORIGINATOR     = 

OBJECT_NAME    = STARLINK-36864
OBJECT_ID      = 2026-041F
CENTER_NAME    = EARTH
REF_FRAME      = TEME
TIME_SYSTEM    = UTC
MEAN_ELEMENT_THEORY = SGP/SGP4

EPOCH          = 2026-03-12T06:00:00.999648
MEAN_MOTION    = 15.83941268
ECCENTRICITY   = .00007066
INCLINATION    = 53.1590
RA_OF_ASC_NODE = 49.2878
ARG_OF_PERICENTER = 90.6258
MEAN_ANOMALY   = 263.1230

EPHEMERIS_TYPE = 0
CLASSIFICATION_TYPE = U
NORAD_CAT_ID   = 68045
ELEMENT_SET_NO = 999
REV_AT_EPOCH   = 278
BSTAR          = -.78532299E-2
MEAN_MOTION_DOT = -.1571235E-1
MEAN_MOTION_DDOT = 0

CCSDS_OMM_VERS = 2.0
CREATION_DATE  = 
ORIGINATOR     = 

OBJECT_NAME    = STARLINK-36321
OBJECT_ID      = 2026-041G
CENTER_NAME    = EARTH
REF_FRAME      = TEME
TIME_SYSTEM    = UTC
MEAN_ELEMENT_THEORY = SGP/SGP4

EPOCH          = 2026-03-12T06:00:00.999648
MEAN_MOTION    = 15.84395890
ECCENTRICITY   = .00009738
INCLINATION    = 53.1590
RA_OF_ASC_NODE = 49.2645
ARG_OF_PERICENTER = 94.4334
MEAN_ANOMALY   = 270.5386

EPHEMERIS_TYPE = 0
CLASSIFICATION_TYPE = U
NORAD_CAT_ID   = 68046
ELEMENT_SET_NO = 999
REV_AT_EPOCH   = 278
BSTAR          = -.7661175E-2
MEAN_MOTION_DOT = -.1567586E-1
MEAN_MOTION_DDOT = 0

CCSDS_OMM_VERS = 2.0
CREATION_DATE  = 
ORIGINATOR     = 

OBJECT_NAME    = STARLINK-36181
OBJECT_ID      = 2026-041H
CENTER_NAME    = EARTH
REF_FRAME      = TEME
TIME_SYSTEM    = UTC
MEAN_ELEMENT_THEORY = SGP/SGP4

EPOCH          = 2026-03-12T06:00:00.999648
MEAN_MOTION    = 15.84259324
ECCENTRICITY   = .00007276
INCLINATION    = 53.1590
RA_OF_ASC_NODE = 49.2724
ARG_OF_PERICENTER = 91.7338
MEAN_ANOMALY   = 269.4627

EPHEMERIS_TYPE = 0
CLASSIFICATION_TYPE = U
NORAD_CAT_ID   = 68047
ELEMENT_SET_NO = 999
REV_AT_EPOCH   = 266
BSTAR          = -.77127086E-2
MEAN_MOTION_DOT = -.1567534E-1
MEAN_MOTION_DDOT = 0

CCSDS_OMM_VERS = 2.0
CREATION_DATE  = 
ORIGINATOR     = 

OBJECT_NAME    = STARLINK-36318
OBJECT_ID      = 2026-041J
CENTER_NAME    = EARTH
REF_FRAME      = TEME
TIME_SYSTEM    = UTC
MEAN_ELEMENT_THEORY = SGP/SGP4

EPOCH          = 2026-03-12T06:00:00.999648
MEAN_MOTION    = 15.84552566
ECCENTRICITY   = .00006164
INCLINATION    = 53.1590
RA_OF_ASC_NODE = 49.2570
ARG_OF_PERICENTER = 83.7712
MEAN_ANOMALY   = 284.8613

EPHEMERIS_TYPE = 0
CLASSIFICATION_TYPE = U
NORAD_CAT_ID   = 68048
ELEMENT_SET_NO = 999
REV_AT_EPOCH   = 278
BSTAR          = -.7576624E-2
MEAN_MOTION_DOT = -.1562512E-1
MEAN_MOTION_DDOT = 0

CCSDS_OMM_VERS = 2.0
CREATION_DATE  = 
ORIGINATOR     = 

OBJECT_NAME    = STARLINK-36885
OBJECT_ID      = 2026-041K
CENTER_NAME    = EARTH
REF_FRAME      = TEME
TIME_SYSTEM    = UTC
MEAN_ELEMENT_THEORY = SGP/SGP4

EPOCH          = 2026-03-12T06:00:00.999648
MEAN_MOTION    = 15.84789153
ECCENTRICITY   = .00008871
INCLINATION    = 53.1588
RA_OF_ASC_NODE = 49.2411
ARG_OF_PERICENTER = 83.5504
MEAN_ANOMALY   = 292.7030

EPHEMERIS_TYPE = 0
CLASSIFICATION_TYPE = U
NORAD_CAT_ID   = 68049
ELEMENT_SET_NO = 999
REV_AT_EPOCH   = 278
BSTAR          = -.75256318E-2
MEAN_MOTION_DOT = -.156921E-1
MEAN_MOTION_DDOT = 0

CCSDS_OMM_VERS = 2.0
CREATION_DATE  = 
ORIGINATOR     = 

OBJECT_NAME    = STARLINK-36945
OBJECT_ID      = 2026-041L
CENTER_NAME    = EARTH
REF_FRAME      = TEME
TIME_SYSTEM    = UTC
MEAN_ELEMENT_THEORY = SGP/SGP4

EPOCH          = 2026-03-12T06:00:00.999648
MEAN_MOTION    = 15.84666193
ECCENTRICITY   = .00008327
INCLINATION    = 53.1589
RA_OF_ASC_NODE = 49.2491
ARG_OF_PERICENTER = 92.7516
MEAN_ANOMALY   = 279.7195

EPHEMERIS_TYPE = 0
CLASSIFICATION_TYPE = U
NORAD_CAT_ID   = 68050
ELEMENT_SET_NO = 999
REV_AT_EPOCH   = 278
BSTAR          = -.75614689E-2
MEAN_MOTION_DOT = -.1567487E-1
MEAN_MOTION_DDOT = 0

CCSDS_OMM_VERS = 2.0
CREATION_DATE  = 
ORIGINATOR     = 

OBJECT_NAME    = STARLINK-35911
OBJECT_ID      = 2026-041M
CENTER_NAME    = EARTH
REF_FRAME      = TEME
TIME_SYSTEM    = UTC
MEAN_ELEMENT_THEORY = SGP/SGP4

EPOCH          = 2026-03-12T06:00:00.999648
MEAN_MOTION    = 15.84896080
ECCENTRICITY   = .0000629
INCLINATION    = 53.1590
RA_OF_ASC_NODE = 49.2337
ARG_OF_PERICENTER = 86.9218
MEAN_ANOMALY   = 293.1789

EPHEMERIS_TYPE = 0
CLASSIFICATION_TYPE = U
NORAD_CAT_ID   = 68051
ELEMENT_SET_NO = 999
REV_AT_EPOCH   = 274
BSTAR          = -.75154744E-2
MEAN_MOTION_DOT = -.1574319E-1
MEAN_MOTION_DDOT = 0

CCSDS_OMM_VERS = 2.0
CREATION_DATE  = 
ORIGINATOR     = 

OBJECT_NAME    = STARLINK-35808
OBJECT_ID      = 2026-041N
CENTER_NAME    = EARTH
REF_FRAME      = TEME
TIME_SYSTEM    = UTC
MEAN_ELEMENT_THEORY = SGP/SGP4

EPOCH          = 2026-03-12T06:00:00.999648
MEAN_MOTION    = 15.85032892
ECCENTRICITY   = .00007067
INCLINATION    = 53.1585
RA_OF_ASC_NODE = 49.2250
ARG_OF_PERICENTER = 83.9546
MEAN_ANOMALY   = 299.8284

EPHEMERIS_TYPE = 0
CLASSIFICATION_TYPE = U
NORAD_CAT_ID   = 68052
ELEMENT_SET_NO = 999
REV_AT_EPOCH   = 274
BSTAR          = -.74591512E-2
MEAN_MOTION_DOT = -.1573194E-1
MEAN_MOTION_DDOT = 0

