STARLINK-36825          
1 68041U 26041B   26071.25001157 -.01578946  00000+0 -80089-2 0  9997
2 68041  53.1589  49.3029 0000861  80.7006 265.4232 15.83647852  2785
STARLINK-36925          
1 68042U 26041C   26071.25001157 -.01572763  00000+0 -80405-2 0  9991
2 68042  53.1591  49.3112 0000613  83.2285 259.1001 15.83475061  2789
STARLINK-36902          
1 68043U 26041D   26071.25001157 -.01569843  00000+0 -78875-2 0  9995
2 68043  53.1592  49.2958 0000806  97.2255 252.6020 15.83828684  2786
STARLINK-36966          
1 68044U 26041E   26071.25001157 -.01564483  00000+0 -77491-2 0  9994
2 68044  53.1590  49.2800 0000893  86.3171 271.1106 15.84113936  2782
STARLINK-36864          
1 68045U 26041F   26071.25001157 -.01571235  00000+0 -78532-2 0  9995
2 68045  53.1590  49.2878 0000706  90.6258 263.1230 15.83941268  2780
STARLINK-36321          
1 68046U 26041G   26071.25001157 -.01567586  00000+0 -76612-2 0  9997
2 68046  53.1590  49.2645 0000973  94.4334 270.5386 15.84395890  2785
STARLINK-36181          
1 68047U 26041H   26071.25001157 -.01567534  00000+0 -77127-2 0  9993
2 68047  53.1590  49.2724 0000727  91.7338 269.4627 15.84259324  2668
STARLINK-36318          
1 68048U 26041J   26071.25001157 -.01562512  00000+0 -75766-2 0  9992
2 68048  53.1590  49.2570 0000616  83.7712 284.8613 15.84552566  2785
STARLINK-36885          
1 68049U 26041K   26071.25001157 -.01569210  00000+0 -75256-2 0  9999
2 68049  53.1588  49.2411 0000887  83.5504 292.7030 15.84789153  2789
STARLINK-36945          
1 68050U 26041L   26071.25001157 -.01567487  00000+0 -75615-2 0  9994
2 68050  53.1589  49.2491 0000832  92.7516 279.7195 15.84666193  2780
STARLINK-35911          
1 68051U 26041M   26071.25001157 -.01574319  00000+0 -75155-2 0  9996
2 68051  53.1590  49.2337 0000629  86.9218 293.1789 15.84896080  2745
STARLINK-35808          
1 68052U 26041N   26071.25001157 -.01573194  00000+0 -74592-2 0  9991
2 68052  53.1585  49.2250 0000706  83.9546 299.8284 15.85032892  2748
